{
  "type": "FeatureCollection",
  "features": [
    {
      "type": "Feature",
      "properties": {
        "norad_id": 60182,
        "name": "ALOS-4 (DAICHI-4)",
        "group": "resource",
        "lat": 3.510415276924393,
        "lon": 90.92038469278408,
        "alt_km": 633.5364266519446,
        "timestamp": "2025-12-22T16:55:17.108082+00:00",
        "meta_object_name": "ALOS-4 (DAICHI-4)",
        "meta_object_id": "2024-123A",
        "meta_epoch": "2025-12-20T19:27:23.067360",
        "meta_mean_motion": 14.79476697,
        "meta_eccentricity": 0.00013881,
        "meta_inclination": 97.9224,
        "meta_ra_of_asc_node": 89.5428,
        "meta_arg_of_pericenter": 101.339,
        "meta_mean_anomaly": 258.7977,
        "meta_ephemeris_type": 0,
        "meta_classification_type": "U",
        "meta_norad_cat_id": 60182,
        "meta_element_set_no": 999,
        "meta_rev_at_epoch": 7950,
        "meta_bstar": 0.00018374076,
        "meta_mean_motion_dot": 1.321e-05,
        "meta_mean_motion_ddot": 0,
        "tle_line1": "1 60182U 24123A   25354.81068365  .00001321  00000+0  18374-3 0  9997",
        "tle_line2": "2 60182  97.9224  89.5428 0001388 101.3390 258.7977 14.79476697 79501"
      },
      "geometry": {
        "type": "Point",
        "coordinates": [
          90.92038469278408,
          3.510415276924393
        ]
      }
    },
    {
      "type": "Feature",
      "properties": {
        "norad_id": 60452,
        "name": "LEGION 3",
        "group": "resource",
        "lat": -8.74988974033314,
        "lon": -112.15355354489837,
        "alt_km": 520.4402417255087,
        "timestamp": "2025-12-22T16:55:17.108093+00:00",
        "meta_object_name": "LEGION 3",
        "meta_object_id": "2024-146A",
        "meta_epoch": "2025-12-22T04:19:23.242368",
        "meta_mean_motion": 15.15852261,
        "meta_eccentricity": 0.00156989,
        "meta_inclination": 45.0011,
        "meta_ra_of_asc_node": 259.5219,
        "meta_arg_of_pericenter": 249.281,
        "meta_mean_anomaly": 110.6386,
        "meta_ephemeris_type": 0,
        "meta_classification_type": "U",
        "meta_norad_cat_id": 60452,
        "meta_element_set_no": 999,
        "meta_rev_at_epoch": 7516,
        "meta_bstar": 0.00024992706,
        "meta_mean_motion_dot": 4.611e-05,
        "meta_mean_motion_ddot": 0,
        "tle_line1": "1 60452U 24146A   25356.18013012  .00004611  00000+0  24993-3 0  9992",
        "tle_line2": "2 60452  45.0011 259.5219 0015698 249.2810 110.6386 15.15852261 75168"
      },
      "geometry": {
        "type": "Point",
        "coordinates": [
          -112.15355354489837,
          -8.74988974033314
        ]
      }
    },
    {
      "type": "Feature",
      "properties": {
        "norad_id": 60453,
        "name": "LEGION 4",
        "group": "resource",
        "lat": -9.648390047204918,
        "lon": -21.29579891794991,
        "alt_km": 513.8251602052724,
        "timestamp": "2025-12-22T16:55:17.108104+00:00",
        "meta_object_name": "LEGION 4",
        "meta_object_id": "2024-146B",
        "meta_epoch": "2025-12-22T05:54:38.319840",
        "meta_mean_motion": 15.15917548,
        "meta_eccentricity": 0.00084782,
        "meta_inclination": 45.0393,
        "meta_ra_of_asc_node": 350.9453,
        "meta_arg_of_pericenter": 3.0084,
        "meta_mean_anomaly": 357.0845,
        "meta_ephemeris_type": 0,
        "meta_classification_type": "U",
        "meta_norad_cat_id": 60453,
        "meta_element_set_no": 999,
        "meta_rev_at_epoch": 7402,
        "meta_bstar": 0.00029600423,
        "meta_mean_motion_dot": 5.511e-05,
        "meta_mean_motion_ddot": 0,
        "tle_line1": "1 60453U 24146B   25356.24627685  .00005511  00000+0  29600-3 0  9997",
        "tle_line2": "2 60453  45.0393 350.9453 0008478   3.0084 357.0845 15.15917548 74026"
      },
      "geometry": {
        "type": "Point",
        "coordinates": [
          -21.29579891794991,
          -9.648390047204918
        ]
      }
    },
    {
      "type": "Feature",
      "properties": {
        "norad_id": 60989,
        "name": "SENTINEL-2C",
        "group": "resource",
        "lat": -5.141078959952157,
        "lon": -111.73357861440506,
        "alt_km": 792.5920784407799,
        "timestamp": "2025-12-22T16:55:17.108114+00:00",
        "meta_object_name": "SENTINEL-2C",
        "meta_object_id": "2024-157A",
        "meta_epoch": "2025-12-22T02:37:57.768096",
        "meta_mean_motion": 14.30821207,
        "meta_eccentricity": 0.00011935,
        "meta_inclination": 98.5671,
        "meta_ra_of_asc_node": 68.4569,
        "meta_arg_of_pericenter": 95.079,
        "meta_mean_anomaly": 265.0529,
        "meta_ephemeris_type": 0,
        "meta_classification_type": "U",
        "meta_norad_cat_id": 60989,
        "meta_element_set_no": 999,
        "meta_rev_at_epoch": 6766,
        "meta_bstar": 7.3686296e-05,
        "meta_mean_motion_dot": 1.5e-06,
        "meta_mean_motion_ddot": 0,
        "tle_line1": "1 60989U 24157A   25356.10969639  .00000150  00000+0  73686-4 0  9994",
        "tle_line2": "2 60989  98.5671  68.4569 0001193  95.0790 265.0529 14.30821207 67664"
      },
      "geometry": {
        "type": "Point",
        "coordinates": [
          -111.73357861440506,
          -5.141078959952157
        ]
      }
    },
    {
      "type": "Feature",
      "properties": {
        "norad_id": 61735,
        "name": "IONOSFERA-M 1",
        "group": "resource",
        "lat": 18.440761932341385,
        "lon": 49.416522228208,
        "alt_km": 816.7466772297403,
        "timestamp": "2025-12-22T16:55:17.108124+00:00",
        "meta_object_name": "IONOSFERA-M 1",
        "meta_object_id": "2024-199A",
        "meta_epoch": "2025-12-22T06:02:19.942080",
        "meta_mean_motion": 14.22716101,
        "meta_eccentricity": 4.952e-05,
        "meta_inclination": 98.7397,
        "meta_ra_of_asc_node": 226.0266,
        "meta_arg_of_pericenter": 8.5162,
        "meta_mean_anomaly": 351.6024,
        "meta_ephemeris_type": 0,
        "meta_classification_type": "U",
        "meta_norad_cat_id": 61735,
        "meta_element_set_no": 999,
        "meta_rev_at_epoch": 10254,
        "meta_bstar": 4.8698348e-05,
        "meta_mean_motion_dot": 6.5e-07,
        "meta_mean_motion_ddot": 0,
        "tle_line1": "1 61735U 24199A   25356.25161970  .00000065  00000+0  48698-4 0  9998",
        "tle_line2": "2 61735  98.7397 226.0266 0000495   8.5162 351.6024 14.22716101102549"
      },
      "geometry": {
        "type": "Point",
        "coordinates": [
          49.416522228208,
          18.440761932341385
        ]
      }
    },
    {
      "type": "Feature",
      "properties": {
        "norad_id": 61736,
        "name": "IONOSFERA-M 2",
        "group": "resource",
        "lat": -15.977404924966859,
        "lon": -131.08700212696021,
        "alt_km": 821.436884618136,
        "timestamp": "2025-12-22T16:55:17.108135+00:00",
        "meta_object_name": "IONOSFERA-M 2",
        "meta_object_id": "2024-199B",
        "meta_epoch": "2025-12-22T06:52:12.226368",
        "meta_mean_motion": 14.2271826,
        "meta_eccentricity": 0.00018302,
        "meta_inclination": 98.7396,
        "meta_ra_of_asc_node": 225.9733,
        "meta_arg_of_pericenter": 98.3021,
        "meta_mean_anomaly": 261.8365,
        "meta_ephemeris_type": 0,
        "meta_classification_type": "U",
        "meta_norad_cat_id": 61736,
        "meta_element_set_no": 999,
        "meta_rev_at_epoch": 10567,
        "meta_bstar": 4.7965486e-05,
        "meta_mean_motion_dot": 6.3e-07,
        "meta_mean_motion_ddot": 0,
        "tle_line1": "1 61736U 24199B   25356.28625262  .00000063  00000+0  47965-4 0  9995",
        "tle_line2": "2 61736  98.7396 225.9733 0001830  98.3021 261.8365 14.22718260105676"
      },
      "geometry": {
        "type": "Point",
        "coordinates": [
          -131.08700212696021,
          -15.977404924966859
        ]
      }
    },
    {
      "type": "Feature",
      "properties": {
        "norad_id": 63772,
        "name": "BIOMASS",
        "group": "resource",
        "lat": -18.57173119589058,
        "lon": -175.69844261582512,
        "alt_km": 674.1287387181528,
        "timestamp": "2025-12-22T16:55:17.108145+00:00",
        "meta_object_name": "BIOMASS",
        "meta_object_id": "2025-090A",
        "meta_epoch": "2025-12-22T05:33:07.604928",
        "meta_mean_motion": 14.67537157,
        "meta_eccentricity": 0.00010777,
        "meta_inclination": 98.0697,
        "meta_ra_of_asc_node": 181.1027,
        "meta_arg_of_pericenter": 82.3391,
        "meta_mean_anomaly": 277.7936,
        "meta_ephemeris_type": 0,
        "meta_classification_type": "U",
        "meta_norad_cat_id": 63772,
        "meta_element_set_no": 999,
        "meta_rev_at_epoch": 3473,
        "meta_bstar": 0.00022220591,
        "meta_mean_motion_dot": 1.212e-05,
        "meta_mean_motion_ddot": 0,
        "tle_line1": "1 63772U 25090A   25356.23133802  .00001212  00000+0  22221-3 0  9991",
        "tle_line2": "2 63772  98.0697 181.1027 0001077  82.3391 277.7936 14.67537157 34731"
      },
      "geometry": {
        "type": "Point",
        "coordinates": [
          -175.69844261582512,
          -18.57173119589058
        ]
      }
    }
  ]
}